[{"OBJECT_NAME":"STARLINK-31946","OBJECT_ID":"2024-106U","EPOCH":"2026-03-09T03:16:02.865792","MEAN_MOTION":15.27581519,"ECCENTRICITY":7.356e-5,"INCLINATION":43.0016,"RA_OF_ASC_NODE":336.0354,"ARG_OF_PERICENTER":313.8976,"MEAN_ANOMALY":46.1815,"EPHEMERIS_TYPE":0,"CLASSIFICATION_TYPE":"U","NORAD_CAT_ID":59940,"ELEMENT_SET_NO":999,"REV_AT_EPOCH":9106,"BSTAR":4.9804081e-5,"MEAN_MOTION_DOT":1.109e-5,"MEAN_MOTION_DDOT":0},{"OBJECT_NAME":"OBJECT J","OBJECT_ID":"2025-155J","EPOCH":"2026-03-09T22:09:22.347648","MEAN_MOTION":15.2758258,"ECCENTRICITY":0.00088188,"INCLINATION":97.4475,"RA_OF_ASC_NODE":37.3123,"ARG_OF_PERICENTER":150.071,"MEAN_ANOMALY":210.1035,"EPHEMERIS_TYPE":0,"CLASSIFICATION_TYPE":"U","NORAD_CAT_ID":64884,"ELEMENT_SET_NO":999,"REV_AT_EPOCH":6559,"BSTAR":0.00051444498,"MEAN_MOTION_DOT":0.00013827,"MEAN_MOTION_DDOT":0}]
